[{"OBJECT_NAME":"OBJECT B","OBJECT_ID":"2024-153B","EPOCH":"2026-03-09T23:15:18.632160","MEAN_MOTION":15.30512917,"ECCENTRICITY":0.00113423,"INCLINATION":97.6622,"RA_OF_ASC_NODE":204.9195,"ARG_OF_PERICENTER":149.8438,"MEAN_ANOMALY":210.3457,"EPHEMERIS_TYPE":0,"CLASSIFICATION_TYPE":"U","NORAD_CAT_ID":60746,"ELEMENT_SET_NO":999,"REV_AT_EPOCH":8476,"BSTAR":0.00066193599,"MEAN_MOTION_DOT":0.00019515,"MEAN_MOTION_DDOT":0},{"OBJECT_NAME":"STARLINK-32934","OBJECT_ID":"2025-048T","EPOCH":"2026-03-09T02:11:23.031456","MEAN_MOTION":15.27581359,"ECCENTRICITY":9.679e-5,"INCLINATION":42.9999,"RA_OF_ASC_NODE":88.4334,"ARG_OF_PERICENTER":257.9111,"MEAN_ANOMALY":102.1632,"EPHEMERIS_TYPE":0,"CLASSIFICATION_TYPE":"U","NORAD_CAT_ID":63200,"ELEMENT_SET_NO":999,"REV_AT_EPOCH":5700,"BSTAR":0.0011780883,"MEAN_MOTION_DOT":0.000323,"MEAN_MOTION_DDOT":0}]
